{
  "type": "FeatureCollection",
  "features": [
    {
      "type": "Feature",
      "properties": {
        "norad_id": 37108,
        "name": "COSMOS 2251 DEB",
        "group": "cosmos-2251-debris",
        "lat": -28.536860626052288,
        "lon": -101.37119576921792,
        "alt_km": 731.4465974313971,
        "timestamp": "2025-12-18T14:52:08.422215+00:00",
        "meta_object_name": "COSMOS 2251 DEB",
        "meta_object_id": "1993-036BGE",
        "meta_epoch": "2025-12-18T05:34:38.722368",
        "meta_mean_motion": 14.41344373,
        "meta_eccentricity": 0.00907908,
        "meta_inclination": 74.0448,
        "meta_ra_of_asc_node": 70.3953,
        "meta_arg_of_pericenter": 145.7411,
        "meta_mean_anomaly": 214.9648,
        "meta_ephemeris_type": 0,
        "meta_classification_type": "U",
        "meta_norad_cat_id": 37108,
        "meta_element_set_no": 999,
        "meta_rev_at_epoch": 85586,
        "meta_bstar": 0.00091104344,
        "meta_mean_motion_dot": 3.072e-05,
        "meta_mean_motion_ddot": 0,
        "tle_line1": "1 37108U 93036BGE 25352.23239262  .00003072  00000+0  91104-3 0  9995",
        "tle_line2": "2 37108  74.0448  70.3953 0090790 145.7411 214.9648 14.41344373855863"
      },
      "geometry": {
        "type": "Point",
        "coordinates": [
          -101.37119576921792,
          -28.536860626052288
        ]
      }
    },
    {
      "type": "Feature",
      "properties": {
        "norad_id": 37126,
        "name": "COSMOS 2251 DEB",
        "group": "cosmos-2251-debris",
        "lat": 55.121758632298494,
        "lon": 7.403915929882499,
        "alt_km": 727.4238003246983,
        "timestamp": "2025-12-18T14:52:08.422225+00:00",
        "meta_object_name": "COSMOS 2251 DEB",
        "meta_object_id": "1993-036BGY",
        "meta_epoch": "2025-12-15T06:43:54.416352",
        "meta_mean_motion": 14.73082746,
        "meta_eccentricity": 0.01230943,
        "meta_inclination": 73.9533,
        "meta_ra_of_asc_node": 349.5533,
        "meta_arg_of_pericenter": 227.1861,
        "meta_mean_anomaly": 131.8915,
        "meta_ephemeris_type": 0,
        "meta_classification_type": "U",
        "meta_norad_cat_id": 37126,
        "meta_element_set_no": 999,
        "meta_rev_at_epoch": 8136,
        "meta_bstar": 0.00020663432,
        "meta_mean_motion_dot": 1.461e-05,
        "meta_mean_motion_ddot": 0,
        "tle_line1": "1 37126U 93036BGY 25349.28049093  .00001461  00000+0  20663-3 0  9999",
        "tle_line2": "2 37126  73.9533 349.5533 0123094 227.1861 131.8915 14.73082746 81367"
      },
      "geometry": {
        "type": "Point",
        "coordinates": [
          7.403915929882499,
          55.121758632298494
        ]
      }
    },
    {
      "type": "Feature",
      "properties": {
        "norad_id": 37132,
        "name": "COSMOS 2251 DEB",
        "group": "cosmos-2251-debris",
        "lat": -32.2391178326962,
        "lon": 52.901893353877774,
        "alt_km": 668.5558389437065,
        "timestamp": "2025-12-18T14:52:08.422235+00:00",
        "meta_object_name": "COSMOS 2251 DEB",
        "meta_object_id": "1993-036BHE",
        "meta_epoch": "2025-12-15T09:32:55.769280",
        "meta_mean_motion": 14.77873409,
        "meta_eccentricity": 0.00399597,
        "meta_inclination": 74.0031,
        "meta_ra_of_asc_node": 228.8126,
        "meta_arg_of_pericenter": 24.0962,
        "meta_mean_anomaly": 336.207,
        "meta_ephemeris_type": 0,
        "meta_classification_type": "U",
        "meta_norad_cat_id": 37132,
        "meta_element_set_no": 999,
        "meta_rev_at_epoch": 62455,
        "meta_bstar": 0.00059917342,
        "meta_mean_motion_dot": 4.336e-05,
        "meta_mean_motion_ddot": 0,
        "tle_line1": "1 37132U 93036BHE 25349.39786770  .00004336  00000+0  59917-3 0  9996",
        "tle_line2": "2 37132  74.0031 228.8126 0039959  24.0962 336.2070 14.77873409624553"
      },
      "geometry": {
        "type": "Point",
        "coordinates": [
          52.901893353877774,
          -32.2391178326962
        ]
      }
    },
    {
      "type": "Feature",
      "properties": {
        "norad_id": 37270,
        "name": "COSMOS 2251 DEB",
        "group": "cosmos-2251-debris",
        "lat": 35.898786808670955,
        "lon": -21.665487209909077,
        "alt_km": 879.5356207599189,
        "timestamp": "2025-12-18T14:52:08.422246+00:00",
        "meta_object_name": "COSMOS 2251 DEB",
        "meta_object_id": "1993-036BHJ",
        "meta_epoch": "2025-12-12T22:45:06.098400",
        "meta_mean_motion": 13.59808663,
        "meta_eccentricity": 0.03985351,
        "meta_inclination": 73.9378,
        "meta_ra_of_asc_node": 335.5481,
        "meta_arg_of_pericenter": 347.3958,
        "meta_mean_anomaly": 11.7404,
        "meta_ephemeris_type": 0,
        "meta_classification_type": "U",
        "meta_norad_cat_id": 37270,
        "meta_element_set_no": 999,
        "meta_rev_at_epoch": 77072,
        "meta_bstar": 0.0064936549,
        "meta_mean_motion_dot": 8.148e-05,
        "meta_mean_motion_ddot": 0,
        "tle_line1": "1 37270U 93036BHJ 25346.94798725  .00008148  00000+0  64937-2 0  9992",
        "tle_line2": "2 37270  73.9378 335.5481 0398535 347.3958  11.7404 13.59808663770728"
      },
      "geometry": {
        "type": "Point",
        "coordinates": [
          -21.665487209909077,
          35.898786808670955
        ]
      }
    },
    {
      "type": "Feature",
      "properties": {
        "norad_id": 37278,
        "name": "COSMOS 2251 DEB",
        "group": "cosmos-2251-debris",
        "lat": 30.389427080045966,
        "lon": 148.8746701434414,
        "alt_km": 627.7797977526125,
        "timestamp": "2025-12-18T14:52:08.422256+00:00",
        "meta_object_name": "COSMOS 2251 DEB",
        "meta_object_id": "1993-036BHS",
        "meta_epoch": "2025-12-04T09:26:36.152736",
        "meta_mean_motion": 14.15029915,
        "meta_eccentricity": 0.029998,
        "meta_inclination": 73.7864,
        "meta_ra_of_asc_node": 4.3592,
        "meta_arg_of_pericenter": 188.2556,
        "meta_mean_anomaly": 234.4903,
        "meta_ephemeris_type": 0,
        "meta_classification_type": "U",
        "meta_norad_cat_id": 37278,
        "meta_element_set_no": 999,
        "meta_rev_at_epoch": 63711,
        "meta_bstar": 0.0023061,
        "meta_mean_motion_dot": 6.884e-05,
        "meta_mean_motion_ddot": 0,
        "tle_line1": "1 37278U 93036BHS 25338.39347399  .00006884  00000+0  23061-2 0  9995",
        "tle_line2": "2 37278  73.7864   4.3592 0299980 188.2556 234.4903 14.15029915637119"
      },
      "geometry": {
        "type": "Point",
        "coordinates": [
          148.8746701434414,
          30.389427080045966
        ]
      }
    },
    {
      "type": "Feature",
      "properties": {
        "norad_id": 37280,
        "name": "COSMOS 2251 DEB",
        "group": "cosmos-2251-debris",
        "lat": -4.367713042658961,
        "lon": -132.18670826120467,
        "alt_km": 737.9846319496983,
        "timestamp": "2025-12-18T14:52:08.422266+00:00",
        "meta_object_name": "COSMOS 2251 DEB",
        "meta_object_id": "1993-036BHU",
        "meta_epoch": "2025-12-14T22:02:27.434112",
        "meta_mean_motion": 14.19330541,
        "meta_eccentricity": 0.01308275,
        "meta_inclination": 74.0321,
        "meta_ra_of_asc_node": 53.1735,
        "meta_arg_of_pericenter": 181.3662,
        "meta_mean_anomaly": 178.7145,
        "meta_ephemeris_type": 0,
        "meta_classification_type": "U",
        "meta_norad_cat_id": 37280,
        "meta_element_set_no": 999,
        "meta_rev_at_epoch": 57354,
        "meta_bstar": 0.00096264954,
        "meta_mean_motion_dot": 2.177e-05,
        "meta_mean_motion_ddot": 0,
        "tle_line1": "1 37280U 93036BHU 25348.91837308  .00002177  00000+0  96265-3 0  9999",
        "tle_line2": "2 37280  74.0321  53.1735 0130827 181.3662 178.7145 14.19330541573549"
      },
      "geometry": {
        "type": "Point",
        "coordinates": [
          -132.18670826120467,
          -4.367713042658961
        ]
      }
    },
    {
      "type": "Feature",
      "properties": {
        "norad_id": 37284,
        "name": "COSMOS 2251 DEB",
        "group": "cosmos-2251-debris",
        "lat": 43.40562723099756,
        "lon": 162.0534885488522,
        "alt_km": 881.973480684037,
        "timestamp": "2025-12-18T14:52:08.422276+00:00",
        "meta_object_name": "COSMOS 2251 DEB",
        "meta_object_id": "1993-036BHY",
        "meta_epoch": "2025-12-10T18:04:20.469216",
        "meta_mean_motion": 14.12686618,
        "meta_eccentricity": 0.01605026,
        "meta_inclination": 74.0123,
        "meta_ra_of_asc_node": 160.2425,
        "meta_arg_of_pericenter": 312.4867,
        "meta_mean_anomaly": 59.8736,
        "meta_ephemeris_type": 0,
        "meta_classification_type": "U",
        "meta_norad_cat_id": 37284,
        "meta_element_set_no": 999,
        "meta_rev_at_epoch": 59147,
        "meta_bstar": 0.001592138,
        "meta_mean_motion_dot": 3.31e-05,
        "meta_mean_motion_ddot": 0,
        "tle_line1": "1 37284U 93036BHY 25344.75301469  .00003310  00000+0  15921-2 0  9994",
        "tle_line2": "2 37284  74.0123 160.2425 0160502 312.4867  59.8736 14.12686618591475"
      },
      "geometry": {
        "type": "Point",
        "coordinates": [
          162.0534885488522,
          43.40562723099756
        ]
      }
    }
  ]
}